{
    "links": {
        "self": "http://www.neowsapp.com/rest/v1/neo/3795112?api_key=iIulBulltgU6a56xZRHN4H3l9WmuAYTsLGpBGhQ2"
    },
    "id": "3795112",
    "neo_reference_id": "3795112",
    "name": "(2017 YQ6)",
    "designation": "2017 YQ6",
    "nasa_jpl_url": "http://ssd.jpl.nasa.gov/sbdb.cgi?sstr=3795112",
    "absolute_magnitude_h": 28.0,
    "estimated_diameter": {
        "kilometers": {
            "estimated_diameter_min": 0.0066765941,
            "estimated_diameter_max": 0.0149293183
        },
        "meters": {
            "estimated_diameter_min": 6.676594135,
            "estimated_diameter_max": 14.9293183439
        },
        "miles": {
            "estimated_diameter_min": 0.004148642,
            "estimated_diameter_max": 0.0092766455
        },
        "feet": {
            "estimated_diameter_min": 21.9048371017,
            "estimated_diameter_max": 48.9807047955
        }
    },
    "is_potentially_hazardous_asteroid": false,
    "close_approach_data": [
        {
            "close_approach_date": "2017-12-27",
            "close_approach_date_full": "2017-Dec-27 01:01",
            "epoch_date_close_approach": 1514336460000,
            "relative_velocity": {
                "kilometers_per_second": "11.3620544603",
                "kilometers_per_hour": "40903.3960571858",
                "miles_per_hour": "25415.7796223108"
            },
            "miss_distance": {
                "astronomical": "0.0043313058",
                "lunar": "1.6848779562",
                "kilometers": "647954.121998646",
                "miles": "402620.0216714748"
            },
            "orbiting_body": "Moon"
        },
        {
            "close_approach_date": "2017-12-27",
            "close_approach_date_full": "2017-Dec-27 02:21",
            "epoch_date_close_approach": 1514341260000,
            "relative_velocity": {
                "kilometers_per_second": "12.3351355574",
                "kilometers_per_hour": "44406.4880066724",
                "miles_per_hour": "27592.4647283682"
            },
            "miss_distance": {
                "astronomical": "0.0048437713",
                "lunar": "1.8842270357",
                "kilometers": "724617.869247131",
                "miles": "450256.6652711678"
            },
            "orbiting_body": "Earth"
        },
        {
            "close_approach_date": "2079-01-10",
            "close_approach_date_full": "2079-Jan-10 04:10",
            "epoch_date_close_approach": 3440549400000,
            "relative_velocity": {
                "kilometers_per_second": "17.2389252688",
                "kilometers_per_hour": "62060.1309675176",
                "miles_per_hour": "38561.7519336778"
            },
            "miss_distance": {
                "astronomical": "0.171572742",
                "lunar": "66.741796638",
                "kilometers": "25666916.75325954",
                "miles": "15948682.520240052"
            },
            "orbiting_body": "Earth"
        }
    ],
    "orbital_data": {
        "orbit_id": "1",
        "orbit_determination_date": "2017-12-29 14:42:03",
        "first_observation_date": "2017-12-28",
        "last_observation_date": "2017-12-29",
        "data_arc_in_days": 1,
        "observations_used": 25,
        "orbit_uncertainty": "7",
        "minimum_orbit_intersection": ".00503116",
        "jupiter_tisserand_invariant": "3.796",
        "epoch_osculation": "2459000.5",
        "eccentricity": ".5368485801262048",
        "semi_major_axis": "1.86361510254701",
        "inclination": "6.301048060641361",
        "ascending_node_longitude": "277.0503416287362",
        "orbital_period": "929.2504044101762",
        "perihelion_distance": ".8631359808428961",
        "perihelion_argument": "127.7502076528648",
        "aphelion_distance": "2.864094224251124",
        "perihelion_time": "2459007.961952191395",
        "mean_anomaly": "357.1091723219564",
        "mean_motion": ".3874090323678719",
        "equinox": "J2000",
        "orbit_class": {
            "orbit_class_type": "APO",
            "orbit_class_description": "Near-Earth asteroid orbits which cross the Earth’s orbit similar to that of 1862 Apollo",
            "orbit_class_range": "a (semi-major axis) > 1.0 AU; q (perihelion) < 1.017 AU"
        }
    },
    "is_sentry_object": false
}